CCSDS_OMM_VERS = 2.0
CREATION_DATE  = 
ORIGINATOR     = 

OBJECT_NAME    = SL-4 R/B
OBJECT_ID      = 2014-021B
CENTER_NAME    = EARTH
REF_FRAME      = TEME
TIME_SYSTEM    = UTC
MEAN_ELEMENT_THEORY = SGP/SGP4

EPOCH          = 2026-01-01T06:03:48.690432
MEAN_MOTION    = 15.37174310
ECCENTRICITY   = .01002713
INCLINATION    = 51.6086
RA_OF_ASC_NODE = 305.7315
ARG_OF_PERICENTER = 216.7769
MEAN_ANOMALY   = 142.6306

EPHEMERIS_TYPE = 0
CLASSIFICATION_TYPE = U
NORAD_CAT_ID   = 39679
ELEMENT_SET_NO = 999
REV_AT_EPOCH   = 64589
BSTAR          = .39782496E-3
MEAN_MOTION_DOT = .17044E-3
MEAN_MOTION_DDOT = 0

CCSDS_OMM_VERS = 2.0
CREATION_DATE  = 
ORIGINATOR     = 

OBJECT_NAME    = ALOS-2
OBJECT_ID      = 2014-029A
CENTER_NAME    = EARTH
REF_FRAME      = TEME
TIME_SYSTEM    = UTC
MEAN_ELEMENT_THEORY = SGP/SGP4

EPOCH          = 2026-01-01T06:56:04.109280
MEAN_MOTION    = 14.79465114
ECCENTRICITY   = .00013232
INCLINATION    = 97.9217
RA_OF_ASC_NODE = 100.8563
ARG_OF_PERICENTER = 106.1812
MEAN_ANOMALY   = 253.9545

EPHEMERIS_TYPE = 0
CLASSIFICATION_TYPE = U
NORAD_CAT_ID   = 39766
ELEMENT_SET_NO = 999
REV_AT_EPOCH   = 62690
BSTAR          = .40388587E-3
MEAN_MOTION_DOT = .2966E-4
MEAN_MOTION_DDOT = 0

CCSDS_OMM_VERS = 2.0
CREATION_DATE  = 
ORIGINATOR     = 

OBJECT_NAME    = YAOGAN-29
OBJECT_ID      = 2015-069A
CENTER_NAME    = EARTH
REF_FRAME      = TEME
TIME_SYSTEM    = UTC
MEAN_ELEMENT_THEORY = SGP/SGP4

EPOCH          = 2026-01-01T07:41:23.004960
MEAN_MOTION    = 14.82909147
ECCENTRICITY   = .00014202
INCLINATION    = 98.0212
RA_OF_ASC_NODE = 29.5543
ARG_OF_PERICENTER = 148.8341
MEAN_ANOMALY   = 211.2957

EPHEMERIS_TYPE = 0
CLASSIFICATION_TYPE = U
NORAD_CAT_ID   = 41038
ELEMENT_SET_NO = 999
REV_AT_EPOCH   = 54589
BSTAR          = .15358905E-3
MEAN_MOTION_DOT = .1191E-4
MEAN_MOTION_DDOT = 0

CCSDS_OMM_VERS = 2.0
CREATION_DATE  = 
ORIGINATOR     = 

OBJECT_NAME    = ASTRO-H (HITOMI)
OBJECT_ID      = 2016-012A
CENTER_NAME    = EARTH
REF_FRAME      = TEME
TIME_SYSTEM    = UTC
MEAN_ELEMENT_THEORY = SGP/SGP4

EPOCH          = 2026-01-01T06:20:24.837504
MEAN_MOTION    = 15.09501628
ECCENTRICITY   = .00095896
INCLINATION    = 31.0004
RA_OF_ASC_NODE = 71.4883
ARG_OF_PERICENTER = 14.8498
MEAN_ANOMALY   = 345.2421

EPHEMERIS_TYPE = 0
CLASSIFICATION_TYPE = U
NORAD_CAT_ID   = 41337
ELEMENT_SET_NO = 999
REV_AT_EPOCH   = 54203
BSTAR          = .32140722E-3
MEAN_MOTION_DOT = .5378E-4
MEAN_MOTION_DDOT = 0

CCSDS_OMM_VERS = 2.0
CREATION_DATE  = 
ORIGINATOR     = 

OBJECT_NAME    = HXMT (HUIYAN)
OBJECT_ID      = 2017-034A
CENTER_NAME    = EARTH
REF_FRAME      = TEME
TIME_SYSTEM    = UTC
MEAN_ELEMENT_THEORY = SGP/SGP4

EPOCH          = 2026-01-01T06:55:38.484768
MEAN_MOTION    = 15.16509312
ECCENTRICITY   = .00320809
INCLINATION    = 43.0156
RA_OF_ASC_NODE = 31.1295
ARG_OF_PERICENTER = 170.9931
MEAN_ANOMALY   = 189.1499

EPHEMERIS_TYPE = 0
CLASSIFICATION_TYPE = U
NORAD_CAT_ID   = 42758
ELEMENT_SET_NO = 999
REV_AT_EPOCH   = 47230
BSTAR          = .47784522E-3
MEAN_MOTION_DOT = .9376E-4
MEAN_MOTION_DDOT = 0

CCSDS_OMM_VERS = 2.0
CREATION_DATE  = 
ORIGINATOR     = 

OBJECT_NAME    = CZ-2C R/B
OBJECT_ID      = 2018-054D
CENTER_NAME    = EARTH
REF_FRAME      = TEME
TIME_SYSTEM    = UTC
MEAN_ELEMENT_THEORY = SGP/SGP4

EPOCH          = 2026-01-01T05:47:59.326368
MEAN_MOTION    = 15.78793099
ECCENTRICITY   = .00128835
INCLINATION    = 35.1337
RA_OF_ASC_NODE = 48.2272
ARG_OF_PERICENTER = 337.5877
MEAN_ANOMALY   = 22.4293

EPHEMERIS_TYPE = 0
CLASSIFICATION_TYPE = U
NORAD_CAT_ID   = 43521
ELEMENT_SET_NO = 999
REV_AT_EPOCH   = 41813
BSTAR          = .85180696E-3
MEAN_MOTION_DOT = .159452E-2
MEAN_MOTION_DDOT = 0

CCSDS_OMM_VERS = 2.0
CREATION_DATE  = 
ORIGINATOR     = 

OBJECT_NAME    = SAOCOM 1A
OBJECT_ID      = 2018-076A
CENTER_NAME    = EARTH
REF_FRAME      = TEME
TIME_SYSTEM    = UTC
MEAN_ELEMENT_THEORY = SGP/SGP4

EPOCH          = 2025-12-31T10:33:23.944608
MEAN_MOTION    = 14.82154801
ECCENTRICITY   = .00013845
INCLINATION    = 97.8848
RA_OF_ASC_NODE = 189.5891
ARG_OF_PERICENTER = 83.2840
MEAN_ANOMALY   = 276.8530

EPHEMERIS_TYPE = 0
CLASSIFICATION_TYPE = U
NORAD_CAT_ID   = 43641
ELEMENT_SET_NO = 999
REV_AT_EPOCH   = 39125
BSTAR          = -.4415733E-4
MEAN_MOTION_DOT = -.404E-5
MEAN_MOTION_DDOT = 0

CCSDS_OMM_VERS = 2.0
CREATION_DATE  = 
ORIGINATOR     = 

OBJECT_NAME    = H-2A R/B
OBJECT_ID      = 2018-084L
CENTER_NAME    = EARTH
REF_FRAME      = TEME
TIME_SYSTEM    = UTC
MEAN_ELEMENT_THEORY = SGP/SGP4

EPOCH          = 2026-01-01T03:34:15.494016
MEAN_MOTION    = 15.38196297
ECCENTRICITY   = .00261033
INCLINATION    = 98.8765
RA_OF_ASC_NODE = 204.2625
ARG_OF_PERICENTER = 258.1001
MEAN_ANOMALY   = 101.7312

EPHEMERIS_TYPE = 0
CLASSIFICATION_TYPE = U
NORAD_CAT_ID   = 43682
ELEMENT_SET_NO = 999
REV_AT_EPOCH   = 39538
BSTAR          = .78294336E-3
MEAN_MOTION_DOT = .29771E-3
MEAN_MOTION_DDOT = 0

CCSDS_OMM_VERS = 2.0
CREATION_DATE  = 
ORIGINATOR     = 

OBJECT_NAME    = SAOCOM 1B
OBJECT_ID      = 2020-059A
CENTER_NAME    = EARTH
REF_FRAME      = TEME
TIME_SYSTEM    = UTC
MEAN_ELEMENT_THEORY = SGP/SGP4

EPOCH          = 2026-01-01T06:44:57.655104
MEAN_MOTION    = 14.82163919
ECCENTRICITY   = .00014595
INCLINATION    = 97.8843
RA_OF_ASC_NODE = 189.5179
ARG_OF_PERICENTER = 86.1856
MEAN_ANOMALY   = 273.9524

EPHEMERIS_TYPE = 0
CLASSIFICATION_TYPE = U
NORAD_CAT_ID   = 46265
ELEMENT_SET_NO = 999
REV_AT_EPOCH   = 28876
BSTAR          = .16375477E-3
MEAN_MOTION_DOT = .1252E-4
MEAN_MOTION_DDOT = 0

CCSDS_OMM_VERS = 2.0
CREATION_DATE  = 
ORIGINATOR     = 

OBJECT_NAME    = CSS (TIANHE)
OBJECT_ID      = 2021-035A
CENTER_NAME    = EARTH
REF_FRAME      = TEME
TIME_SYSTEM    = UTC
MEAN_ELEMENT_THEORY = SGP/SGP4

EPOCH          = 2026-01-01T04:21:46.069344
MEAN_MOTION    = 15.59999525
ECCENTRICITY   = .00099403
INCLINATION    = 41.4666
RA_OF_ASC_NODE = 258.6061
ARG_OF_PERICENTER = 195.4734
MEAN_ANOMALY   = 164.5802

EPHEMERIS_TYPE = 0
CLASSIFICATION_TYPE = U
NORAD_CAT_ID   = 48274
ELEMENT_SET_NO = 999
REV_AT_EPOCH   = 26706
BSTAR          = .3102677E-3
MEAN_MOTION_DOT = .25606E-3
MEAN_MOTION_DDOT = 0

CCSDS_OMM_VERS = 2.0
CREATION_DATE  = 
ORIGINATOR     = 

OBJECT_NAME    = COSMOS 2550
OBJECT_ID      = 2021-056A
CENTER_NAME    = EARTH
REF_FRAME      = TEME
TIME_SYSTEM    = UTC
MEAN_ELEMENT_THEORY = SGP/SGP4

EPOCH          = 2025-12-31T12:08:23.692128
MEAN_MOTION    = 15.33836624
ECCENTRICITY   = .00083314
INCLINATION    = 67.1441
RA_OF_ASC_NODE = 247.1723
ARG_OF_PERICENTER = 269.3764
MEAN_ANOMALY   = 90.6436

EPHEMERIS_TYPE = 0
CLASSIFICATION_TYPE = U
NORAD_CAT_ID   = 48865
ELEMENT_SET_NO = 999
REV_AT_EPOCH   = 25300
BSTAR          = .698646E-6
MEAN_MOTION_DOT = -.169E-5
MEAN_MOTION_DDOT = 0

CCSDS_OMM_VERS = 2.0
CREATION_DATE  = 
ORIGINATOR     = 

OBJECT_NAME    = CZ-2C R/B
OBJECT_ID      = 2022-058K
CENTER_NAME    = EARTH
REF_FRAME      = TEME
TIME_SYSTEM    = UTC
MEAN_ELEMENT_THEORY = SGP/SGP4

EPOCH          = 2026-01-01T05:23:04.951104
MEAN_MOTION    = 15.49659566
ECCENTRICITY   = .00439983
INCLINATION    = 50.1922
RA_OF_ASC_NODE = 304.1064
ARG_OF_PERICENTER = 278.3902
MEAN_ANOMALY   = 81.2080

EPHEMERIS_TYPE = 0
CLASSIFICATION_TYPE = U
NORAD_CAT_ID   = 52794
ELEMENT_SET_NO = 999
REV_AT_EPOCH   = 19965
BSTAR          = .67266974E-3
MEAN_MOTION_DOT = .39221E-3
MEAN_MOTION_DDOT = 0

