SL-4 R/B                
1 39679U 14021B   26001.25264688  .00017044  00000+0  39782-3 0  9999
2 39679  51.6086 305.7315 0100271 216.7769 142.6306 15.37174310645891
ALOS-2                  
1 39766U 14029A   26001.28893645  .00002966  00000+0  40389-3 0  9990
2 39766  97.9217 100.8563 0001323 106.1812 253.9545 14.79465114626907
YAOGAN-29               
1 41038U 15069A   26001.32040515  .00001191  00000+0  15359-3 0  9993
2 41038  98.0212  29.5543 0001420 148.8341 211.2957 14.82909147545897
ASTRO-H (HITOMI)        
1 41337U 16012A   26001.26417636  .00005378  00000+0  32141-3 0  9998
2 41337  31.0004  71.4883 0009589  14.8498 345.2421 15.09501628542036
HXMT (HUIYAN)           
1 42758U 17034A   26001.28863987  .00009376  00000+0  47785-3 0  9999
2 42758  43.0156  31.1295 0032080 170.9931 189.1499 15.16509312472301
CZ-2C R/B               
1 43521U 18054D   26001.24165887  .00159452  00000+0  85181-3 0  9994
2 43521  35.1337  48.2272 0012883 337.5877  22.4293 15.78793099418133
SAOCOM 1A               
1 43641U 18076A   25365.43986047 -.00000404  00000+0 -44157-4 0  9996
2 43641  97.8848 189.5891 0001384  83.2840 276.8530 14.82154801391251
H-2A R/B                
1 43682U 18084L   26001.14879044  .00029771  00000+0  78294-3 0  9998
2 43682  98.8765 204.2625 0026103 258.1001 101.7312 15.38196297395382
SAOCOM 1B               
1 46265U 20059A   26001.28122286  .00001252  00000+0  16375-3 0  9993
2 46265  97.8843 189.5179 0001459  86.1856 273.9524 14.82163919288764
CSS (TIANHE)            
1 48274U 21035A   26001.18178321  .00025606  00000+0  31027-3 0  9990
2 48274  41.4666 258.6061 0009940 195.4734 164.5802 15.59999525267063
COSMOS 2550             
1 48865U 21056A   25365.50582977 -.00000169  00000+0  69865-6 0  9995
2 48865  67.1441 247.1723 0008331 269.3764  90.6436 15.33836624253003
CZ-2C R/B               
1 52794U 22058K   26001.22436286  .00039221  00000+0  67267-3 0  9993
2 52794  50.1922 304.1064 0043998 278.3902  81.2080 15.49659566199655
